{"type": "FeatureCollection", "features": [ {"type": "Feature", "properties": {"norad_id": 66869, "name": "STARLINK-36092", "group": "last-30-days", "lat": 41.336149453752604, "lon": 176.8010923944745, "alt_km": 354.70856358661604, "timestamp": "2025-12-21T16:47:53.450790+00:00", "meta": {"OBJECT_NAME": "STARLINK-36092", "OBJECT_ID": "2025-281X", "EPOCH": "2025-12-21T12:00:02.000160", "MEAN_MOTION": 15.7035402, "ECCENTRICITY": 0.000134, "INCLINATION": 43.0004, "RA_OF_ASC_NODE": 68.7345, "ARG_OF_PERICENTER": 284.8037, "MEAN_ANOMALY": 128.363, "EPHEMERIS_TYPE": 0, "CLASSIFICATION_TYPE": "U", "NORAD_CAT_ID": 66869, "ELEMENT_SET_NO": 999, "REV_AT_EPOCH": 283, "BSTAR": -0.017522, "MEAN_MOTION_DOT": -0.01949166, "MEAN_MOTION_DDOT": 0}, "tle": {"line1": "1 66869U 25281X   25355.50002315 -.01949166  00000+0 -17522-1 0  9994", "line2": "2 66869  43.0004  68.7345 0001340 284.8037 128.3630 15.70354020  2834"}}, "geometry": {"type": "Point", "coordinates": [176.8010923944745, 41.336149453752604]}}, {"type": "Feature", "properties": {"norad_id": 66870, "name": "STARLINK-36114", "group": "last-30-days", "lat": 40.87631010255379, "lon": 179.27766729623693, "alt_km": 354.9399590125404, "timestamp": "2025-12-21T16:47:53.450816+00:00", "meta": {"OBJECT_NAME": "STARLINK-36114", "OBJECT_ID": "2025-281Y", "EPOCH": "2025-12-21T12:00:02.000160", "MEAN_MOTION": 15.7033105, "ECCENTRICITY": 0.000153, "INCLINATION": 43.0005, "RA_OF_ASC_NODE": 68.7297, "ARG_OF_PERICENTER": 288.774, "MEAN_ANOMALY": 126.3271, "EPHEMERIS_TYPE": 0, "CLASSIFICATION_TYPE": "U", "NORAD_CAT_ID": 66870, "ELEMENT_SET_NO": 999, "REV_AT_EPOCH": 270, "BSTAR": -0.017311, "MEAN_MOTION_DOT": -0.01926817, "MEAN_MOTION_DDOT": 0}, "tle": {"line1": "1 66870U 25281Y   25355.50002315 -.01926817  00000+0 -17311-1 0  9990", "line2": "2 66870  43.0005  68.7297 0001530 288.7740 126.3271 15.70331050  2701"}}, "geometry": {"type": "Point", "coordinates": [179.27766729623693, 40.87631010255379]}}, {"type": "Feature", "properties": {"norad_id": 66871, "name": "STARLINK-36095", "group": "last-30-days", "lat": 40.367258674107376, "lon": -178.2968261001942, "alt_km": 354.84568737269456, "timestamp": "2025-12-21T16:47:53.450845+00:00", "meta": {"OBJECT_NAME": "STARLINK-36095", "OBJECT_ID": "2025-281Z", "EPOCH": "2025-12-21T12:00:02.000160", "MEAN_MOTION": 15.70351465, "ECCENTRICITY": 0.0001315, "INCLINATION": 43.0006, "RA_OF_ASC_NODE": 68.7245, "ARG_OF_PERICENTER": 287.2709, "MEAN_ANOMALY": 129.7314, "EPHEMERIS_TYPE": 0, "CLASSIFICATION_TYPE": "U", "NORAD_CAT_ID": 66871, "ELEMENT_SET_NO": 999, "REV_AT_EPOCH": 283, "BSTAR": -0.017492, "MEAN_MOTION_DOT": -0.01945975, "MEAN_MOTION_DDOT": 0}, "tle": {"line1": "1 66871U 25281Z   25355.50002315 -.01945975  00000+0 -17492-1 0  9997", "line2": "2 66871  43.0006  68.7245 0001315 287.2709 129.7314 15.70351465  2837"}}, "geometry": {"type": "Point", "coordinates": [-178.2968261001942, 40.367258674107376]}}, {"type": "Feature", "properties": {"norad_id": 66872, "name": "STARLINK-36082", "group": "last-30-days", "lat": 39.806082675405165, "lon": -175.90198318965656, "alt_km": 354.92621831615725, "timestamp": "2025-12-21T16:47:53.450857+00:00", "meta": {"OBJECT_NAME": "STARLINK-36082", "OBJECT_ID": "2025-281AA", "EPOCH": "2025-12-21T12:00:02.000160", "MEAN_MOTION": 15.70349842, "ECCENTRICITY": 0.00013, "INCLINATION": 43.0005, "RA_OF_ASC_NODE": 68.7194, "ARG_OF_PERICENTER": 284.8843, "MEAN_ANOMALY": 134.0378, "EPHEMERIS_TYPE": 0, "CLASSIFICATION_TYPE": "U", "NORAD_CAT_ID": 66872, "ELEMENT_SET_NO": 999, "REV_AT_EPOCH": 270, "BSTAR": -0.017492, "MEAN_MOTION_DOT": -0.01945791, "MEAN_MOTION_DDOT": 0}, "tle": {"line1": "1 66872U 25281AA  25355.50002315 -.01945791  00000+0 -17492-1 0  9994", "line2": "2 66872  43.0005  68.7194 0001300 284.8843 134.0378 15.70349842  2707"}}, "geometry": {"type": "Point", "coordinates": [-175.90198318965656, 39.806082675405165]}}, {"type": "Feature", "properties": {"norad_id": 66873, "name": "STARLINK-36128", "group": "last-30-days", "lat": 37.839992985462544, "lon": -168.97095091604484, "alt_km": 355.2517776957684, "timestamp": "2025-12-21T16:47:53.450867+00:00", "meta": {"OBJECT_NAME": "STARLINK-36128", "OBJECT_ID": "2025-281AB", "EPOCH": "2025-12-21T12:00:02.000160", "MEAN_MOTION": 15.70348637, "ECCENTRICITY": 0.0001336, "INCLINATION": 43.0004, "RA_OF_ASC_NODE": 68.7041, "ARG_OF_PERICENTER": 286.2784, "MEAN_ANOMALY": 138.3936, "EPHEMERIS_TYPE": 0, "CLASSIFICATION_TYPE": "U", "NORAD_CAT_ID": 66873, "ELEMENT_SET_NO": 999, "REV_AT_EPOCH": 283, "BSTAR": -0.017458, "MEAN_MOTION_DOT": -0.01942388, "MEAN_MOTION_DDOT": 0}, "tle": {"line1": "1 66873U 25281AB  25355.50002315 -.01942388  00000+0 -17458-1 0  9996", "line2": "2 66873  43.0004  68.7041 0001336 286.2784 138.3936 15.70348637  2839"}}, "geometry": {"type": "Point", "coordinates": [-168.97095091604484, 37.839992985462544]}}, {"type": "Feature", "properties": {"norad_id": 66874, "name": "STARLINK-36129", "group": "last-30-days", "lat": 39.19727983220431, "lon": -173.5502762393083, "alt_km": 355.0482555389299, "timestamp": "2025-12-21T16:47:53.450879+00:00", "meta": {"OBJECT_NAME": "STARLINK-36129", "OBJECT_ID": "2025-281AC", "EPOCH": "2025-12-21T12:00:02.000160", "MEAN_MOTION": 15.70352695, "ECCENTRICITY": 0.0001349, "INCLINATION": 43.0006, "RA_OF_ASC_NODE": 68.7146, "ARG_OF_PERICENTER": 285.7351, "MEAN_ANOMALY": 135.1005, "EPHEMERIS_TYPE": 0, "CLASSIFICATION_TYPE": "U", "NORAD_CAT_ID": 66874, "ELEMENT_SET_NO": 999, "REV_AT_EPOCH": 283, "BSTAR": -0.017508, "MEAN_MOTION_DOT": -0.01947629, "MEAN_MOTION_DDOT": 0}, "tle": {"line1": "1 66874U 25281AC  25355.50002315 -.01947629  00000+0 -17508-1 0  9996", "line2": "2 66874  43.0006  68.7146 0001349 285.7351 135.1005 15.70352695  2837"}}, "geometry": {"type": "Point", "coordinates": [-173.5502762393083, 39.19727983220431]}}, {"type": "Feature", "properties": {"norad_id": 66875, "name": "STARLINK-36053", "group": "last-30-days", "lat": 37.09629407680136, "lon": -166.74690653863206, "alt_km": 355.3252184257235, "timestamp": "2025-12-21T16:47:53.450889+00:00", "meta": {"OBJECT_NAME": "STARLINK-36053", "OBJECT_ID": "2025-281AD", "EPOCH": "2025-12-21T12:00:02.000160", "MEAN_MOTION": 15.70350237, "ECCENTRICITY": 0.0001276, "INCLINATION": 43.0006, "RA_OF_ASC_NODE": 68.6987, "ARG_OF_PERICENTER": 286.7953, "MEAN_ANOMALY": 139.7932, "EPHEMERIS_TYPE": 0, "CLASSIFICATION_TYPE": "U", "NORAD_CAT_ID": 66875, "ELEMENT_SET_NO": 999, "REV_AT_EPOCH": 283, "BSTAR": -0.017483, "MEAN_MOTION_DOT": -0.0194493, "MEAN_MOTION_DDOT": 0}, "tle": {"line1": "1 66875U 25281AD  25355.50002315 -.01944930  00000+0 -17483-1 0  9991", "line2": "2 66875  43.0006  68.6987 0001276 286.7953 139.7932 15.70350237  2837"}}, "geometry": {"type": "Point", "coordinates": [-166.74690653863206, 37.09629407680136]}}, {"type": "Feature", "properties": {"norad_id": 66876, "name": "STARLINK-35702", "group": "last-30-days", "lat": 38.54340246809163, "lon": -171.24704837119282, "alt_km": 355.1740574865971, "timestamp": "2025-12-21T16:47:53.450901+00:00", "meta": {"OBJECT_NAME": "STARLINK-35702", "OBJECT_ID": "2025-281AE", "EPOCH": "2025-12-21T12:00:02.000160", "MEAN_MOTION": 15.70345241, "ECCENTRICITY": 0.0001389, "INCLINATION": 43.0004, "RA_OF_ASC_NODE": 68.7096, "ARG_OF_PERICENTER": 287.2891, "MEAN_ANOMALY": 135.4586, "EPHEMERIS_TYPE": 0, "CLASSIFICATION_TYPE": "U", "NORAD_CAT_ID": 66876, "ELEMENT_SET_NO": 999, "REV_AT_EPOCH": 283, "BSTAR": -0.017334, "MEAN_MOTION_DOT": -0.01930003, "MEAN_MOTION_DDOT": 0}, "tle": {"line1": "1 66876U 25281AE  25355.50002315 -.01930003  00000+0 -17334-1 0  9993", "line2": "2 66876  43.0004  68.7096 0001389 287.2891 135.4586 15.70345241  2837"}}, "geometry": {"type": "Point", "coordinates": [-171.24704837119282, 38.54340246809163]}}, {"type": "Feature", "properties": {"norad_id": 66877, "name": "ZQ-3 R/B", "group": "last-30-days", "lat": -0.25920093628994206, "lon": -156.93556794017297, "alt_km": 335.76701681908526, "timestamp": "2025-12-21T16:47:53.450911+00:00", "meta": {"OBJECT_NAME": "ZQ-3 R/B", "OBJECT_ID": "2025-282A", "EPOCH": "2025-12-21T11:03:12.671712", "MEAN_MOTION": 14.77070822, "ECCENTRICITY": 0.0706353, "INCLINATION": 56.9491, "RA_OF_ASC_NODE": 23.8366, "ARG_OF_PERICENTER": 235.2806, "MEAN_ANOMALY": 117.9737, "EPHEMERIS_TYPE": 0, "CLASSIFICATION_TYPE": "U", "NORAD_CAT_ID": 66877, "ELEMENT_SET_NO": 999, "REV_AT_EPOCH": 267, "BSTAR": 0.0001683, "MEAN_MOTION_DOT": 0.00946982, "MEAN_MOTION_DDOT": 7.7912e-06}, "tle": {"line1": "1 66877U 25282A   25355.46056333  .00946982  77912-5  16830-3 0  9993", "line2": "2 66877  56.9491  23.8366 0706353 235.2806 117.9737 14.77070822  2676"}}, "geometry": {"type": "Point", "coordinates": [-156.93556794017297, -0.25920093628994206]}}, {"type": "Feature", "properties": {"norad_id": 66878, "name": "STARLINK-35866", "group": "last-30-days", "lat": 11.534582636141202, "lon": -159.8503435836495, "alt_km": 346.0088194111404, "timestamp": "2025-12-21T16:47:53.450922+00:00", "meta": {"OBJECT_NAME": "STARLINK-35866", "OBJECT_ID": "2025-283A", "EPOCH": "2025-12-21T12:00:02.000160", "MEAN_MOTION": 15.74200917, "ECCENTRICITY": 0.0001026, "INCLINATION": 53.1578, "RA_OF_ASC_NODE": 29.9439, "ARG_OF_PERICENTER": 92.8641, "MEAN_ANOMALY": 19.0364, "EPHEMERIS_TYPE": 0, "CLASSIFICATION_TYPE": "U", "NORAD_CAT_ID": 66878, "ELEMENT_SET_NO": 999, "REV_AT_EPOCH": 383, "BSTAR": -0.00016635, "MEAN_MOTION_DOT": -0.00024932, "MEAN_MOTION_DDOT": 0}, "tle": {"line1": "1 66878U 25283A   25355.50002315 -.00024932  00000+0 -16635-3 0  9996", "line2": "2 66878  53.1578  29.9439 0001026  92.8641  19.0364 15.74200917  3834"}}, "geometry": {"type": "Point", "coordinates": [-159.8503435836495, 11.534582636141202]}}]}